IRIDIUM 171             
1 43929U 19002H   23240.86646812  .00000069  00000+0  17607-4 0  9990
2 43929  86.3935  61.4379 0001974  87.7610 272.3812 14.34216165242289
IRIDIUM 170             
1 43930U 19002J   23241.04726590  .00000399  00000+0  59372-4 0  9996
2 43930  86.6058  61.2258 0002428  89.9685 270.1811 14.72257041248725
IRIDIUM 167             
1 43931U 19002K   23240.86012408  .00000117  00000+0  34830-4 0  9992
2 43931  86.3926  61.2610 0002028  87.5913 272.5515 14.34215869242285
IRIDIUM 181             
1 56726U 23068S   23240.89801197  .00000356  00000+0  99418-4 0  9997
2 56726  86.8590 100.7927 0002981  60.0267 300.1230 14.43581056 14822
IRIDIUM 177             
1 56727U 23068T   23241.03694629  .00001290  00000+0  16635-3 0  9992
2 56727  86.1937  94.5482 0001962  86.4229 273.7216 14.80229980 15012
IRIDIUM 174             
1 56728U 23068U   23240.62590875  .00001312  00000+0  16916-3 0  9992
2 56728  86.1943  94.8235 0002323  90.5523 269.5965 14.80230964 14954
IRIDIUM 178             
1 56729U 23068V   23240.89046075  .00001289  00000+0  16617-3 0  9991
2 56729  86.5742  98.2681 0002226  91.1886 268.9590 14.80230817 14998
IRIDIUM 179             
1 56730U 23068W   23240.88504898  .00001248  00000+0  16085-3 0  9998
2 56730  86.6751  98.7125 0002137  88.6524 271.4943 14.80228596 14992
